! Orbits computed with differential corrections
format  = 'OEF1.1'       ! file format
rectype = 'ML'           ! record type (1L/ML)
refsys  = ECLM J2000     ! default reference system
END_OF_HEADER
1998PB1
! Equinoctial elements: a, e*sin(LP), e*cos(LP), tan(i/2)*sin(LN), tan(i/2)*cos(LN), mean long.
 EQU   2.02867358259899E+00 -0.405452615496457  0.147594387871828 -0.045208376969478  0.026006515083734 299.3832316038221
 MJD     51040.27737130 TDT
 MAG  17.446  0.150
! RMS    1.16519E-04   2.45477E-05   1.48739E-05   1.31123E-06   3.09079E-07   5.01201E-04
! EIG   1.91005E-08   4.18118E-08   1.92733E-07   2.54011E-07   5.35974E-06   1.20208E-04
! WEA  -0.96931   0.20380  -0.12192   0.01077  -0.00133   0.06268
 COV   1.357657250285864E-08 -2.854028062727338E-09  1.708351631748119E-09
 COV  -1.507952786086662E-10  1.850838667845425E-11 -5.022675025170715E-08
 COV   6.025887428223409E-10 -3.551112015880977E-10  3.191316839254548E-11
 COV  -4.165433142174215E-12  1.097037397749155E-08  2.212325799244010E-10
 COV  -1.862965681863505E-11  1.906297448644374E-12 -5.680307329400381E-09
 COV   1.719317940886572E-12 -2.582009545468644E-13  5.927371308538132E-10
 COV   9.552957428398654E-14 -1.117208783023638E-10  2.512021793608573E-07
 NOR   7.178488458674963E+12 -3.338955297731844E+13 -8.160105765381222E+13
 NOR   2.003305404769770E+13  1.346783027505751E+13  1.006994635618229E+12
 NOR   5.081793235230676E+14  7.993475874697121E+14  1.132834531935990E+14
 NOR   9.757761451063269E+13 -1.101770639294298E+13  1.427699095804825E+15
 NOR   2.914028652792410E+13  4.562924274143129E+13 -1.898909906121568E+13
 NOR   3.609062841386966E+14  2.616670843376511E+14 -1.018023573483742E+12
 NOR   2.142226606980470E+14 -1.058892510633552E+12  2.550480618059954E+11
